EROS C3                 
1 54880U 22179A   26197.17188905  .00002710  00000+0  14509-3 0  9991
2 54880 139.3347 170.4746 0007544 187.5667 172.5027 15.11038773196710
