{"fetched_at":"2026-07-16T17:46:23.305Z","source":"https://celestrak.org/NORAD/elements/gp.php?NAME=EROS&FORMAT=JSON","constellation":"eros","records":[{"OBJECT_NAME":"EROS C3","OBJECT_ID":"2022-179A","EPOCH":"2026-07-16T04:07:31.213920","CLASSIFICATION_TYPE":"U","MEAN_MOTION":15.11038773,"ECCENTRICITY":0.00075444,"INCLINATION":139.3347,"RA_OF_ASC_NODE":170.4746,"ARG_OF_PERICENTER":187.5667,"MEAN_ANOMALY":172.5027,"EPHEMERIS_TYPE":0,"NORAD_CAT_ID":54880,"ELEMENT_SET_NO":999,"REV_AT_EPOCH":19671,"BSTAR":0.00014508962,"MEAN_MOTION_DOT":0.0000271,"MEAN_MOTION_DDOT":0}]}
